ONEWEB-0534             
1 55797U 23029B   23325.83051871  .00000043  00000+0  73971-4 0  9994
2 55797  87.9180 101.2760 0001405  88.6926 271.4368 13.20778086 37287
ONEWEB-0556             
1 55798U 23029C   23325.91256622  .00000005  00000+0 -19916-4 0  9993
2 55798  87.9181 101.2535 0001943  67.3771 292.7568 13.20769105 37985
ONEWEB-0562             
1 55799U 23029D   23325.82420079 -.00000054  00000+0 -16394-3 0  9994
2 55799  87.9177 101.2601 0002669  79.4266 280.7168 13.20778017 37282
ONEWEB-0563             
1 55800U 23029E   23325.81787254 -.00000057  00000+0 -17297-3 0  9993
2 55800  87.9175 101.2767 0001639  84.2161 275.9159 13.20768467 37273
ONEWEB-0564             
1 55801U 23029F   23325.88734260  .00001227  00000+0  29847-2 0  9991
2 55801  87.9178 101.2459 0001810  91.8640 268.2701 13.20767715 37297
ONEWEB-0638             
1 55802U 23029G   23325.86079504  .00000099  00000+0  23187-3 0  9991
2 55802  87.8956 116.5285 0001415  65.2755 294.8522 13.14503671 36129
ONEWEB-0639             
1 55803U 23029H   23325.87490789  .00000051  00000+0  94715-4 0  9999
2 55803  87.9179 131.7341 0000017 245.1201 114.9930 13.19723515 35144
ONEWEB-0640             
1 55804U 23029J   23325.87030482  .00000228  00000+0  58115-3 0  9999
2 55804  87.8935 116.5307 0001198  52.3741 307.7497 13.14500050 36148
